EUTELSAT 21B            
1 38992U 12062B   25308.61146458  .00000143  00000+0  00000+0 0  9991
2 38992   0.0716 346.4562 0003056 252.6775  46.7230  1.00272816 47577
EUTELSAT 70B            
1 39020U 12069A   25308.62117131 -.00000031  00000+0  00000+0 0  9995
2 39020   0.0670   4.3171 0004346 217.3036 116.6314  1.00271818 47252
EUTELSAT 117 WEST A     
1 39122U 13012A   25308.65540483 -.00000001  00000+0  00000+0 0  9997
2 39122   0.0327  31.3781 0003365 206.4456 285.4983  1.00271287 46184
EUTELSAT 7B             
1 39163U 13022A   25308.60860457  .00000061  00000+0  00000+0 0  9999
2 39163   0.0725   7.6364 0003000 298.1587 324.4363  1.00272345 45702
EXPRESS-AT1             
1 39612U 14010A   25308.61831130  .00000091  00000+0  00000+0 0  9996
2 39612   0.0124 256.6514 0000443 237.0661 189.0193  1.00268566 42567
EXPRESS-AT2             
1 39613U 14010B   25308.85884988 -.00000269  00000+0  00000+0 0  9990
2 39613   0.0141 267.1688 0001832  18.0293 208.2189  1.00272072 42259
EUTELSAT 3B             
1 39773U 14030A   25308.60782457  .00000032  00000+0  00000+0 0  9997
2 39773   0.0774  32.7866 0004656 184.1927  49.0342  1.00271241 41818
EUTELSAT 115 WEST B     
1 40425U 15010B   25308.28036639 -.00000012  00000+0  00000+0 0  9999
2 40425   0.0151 106.1995 0000449 283.1021   0.5336  1.00269913 39133
