<?xml version="1.0" encoding="UTF-8"?>
<ndm xmlns:xsi="http://www.w3.org/2001/XMLSchema-instance" xsi:noNamespaceSchemaLocation="https://sanaregistry.org/r/ndmxml_unqualified/ndmxml-2.0.0-master-2.0.xsd">
<omm id="CCSDS_OMM_VERS" version="2.0">
<header><CREATION_DATE/><ORIGINATOR/></header><body><segment><metadata><OBJECT_NAME>EUTELSAT 21B</OBJECT_NAME><OBJECT_ID>2012-062B</OBJECT_ID><CENTER_NAME>EARTH</CENTER_NAME><REF_FRAME>TEME</REF_FRAME><TIME_SYSTEM>UTC</TIME_SYSTEM><MEAN_ELEMENT_THEORY>SGP4</MEAN_ELEMENT_THEORY></metadata><data><meanElements><EPOCH>2025-11-04T14:40:30.539712</EPOCH><MEAN_MOTION>1.00272816</MEAN_MOTION><ECCENTRICITY>.0003056</ECCENTRICITY><INCLINATION>0.0716</INCLINATION><RA_OF_ASC_NODE>346.4562</RA_OF_ASC_NODE><ARG_OF_PERICENTER>252.6775</ARG_OF_PERICENTER><MEAN_ANOMALY>46.7230</MEAN_ANOMALY></meanElements><tleParameters><EPHEMERIS_TYPE>0</EPHEMERIS_TYPE><CLASSIFICATION_TYPE>U</CLASSIFICATION_TYPE><NORAD_CAT_ID>38992</NORAD_CAT_ID><ELEMENT_SET_NO>999</ELEMENT_SET_NO><REV_AT_EPOCH>4757</REV_AT_EPOCH><BSTAR>0</BSTAR><MEAN_MOTION_DOT>.143E-5</MEAN_MOTION_DOT><MEAN_MOTION_DDOT>0</MEAN_MOTION_DDOT></tleParameters></data></segment></body></omm>
<omm id="CCSDS_OMM_VERS" version="2.0">
<header><CREATION_DATE/><ORIGINATOR/></header><body><segment><metadata><OBJECT_NAME>EUTELSAT 70B</OBJECT_NAME><OBJECT_ID>2012-069A</OBJECT_ID><CENTER_NAME>EARTH</CENTER_NAME><REF_FRAME>TEME</REF_FRAME><TIME_SYSTEM>UTC</TIME_SYSTEM><MEAN_ELEMENT_THEORY>SGP4</MEAN_ELEMENT_THEORY></metadata><data><meanElements><EPOCH>2025-11-04T14:54:29.201184</EPOCH><MEAN_MOTION>1.00271818</MEAN_MOTION><ECCENTRICITY>.0004346</ECCENTRICITY><INCLINATION>0.0670</INCLINATION><RA_OF_ASC_NODE>4.3171</RA_OF_ASC_NODE><ARG_OF_PERICENTER>217.3036</ARG_OF_PERICENTER><MEAN_ANOMALY>116.6314</MEAN_ANOMALY></meanElements><tleParameters><EPHEMERIS_TYPE>0</EPHEMERIS_TYPE><CLASSIFICATION_TYPE>U</CLASSIFICATION_TYPE><NORAD_CAT_ID>39020</NORAD_CAT_ID><ELEMENT_SET_NO>999</ELEMENT_SET_NO><REV_AT_EPOCH>4725</REV_AT_EPOCH><BSTAR>0</BSTAR><MEAN_MOTION_DOT>-.31E-6</MEAN_MOTION_DOT><MEAN_MOTION_DDOT>0</MEAN_MOTION_DDOT></tleParameters></data></segment></body></omm>
<omm id="CCSDS_OMM_VERS" version="2.0">
<header><CREATION_DATE/><ORIGINATOR/></header><body><segment><metadata><OBJECT_NAME>EUTELSAT 117 WEST A</OBJECT_NAME><OBJECT_ID>2013-012A</OBJECT_ID><CENTER_NAME>EARTH</CENTER_NAME><REF_FRAME>TEME</REF_FRAME><TIME_SYSTEM>UTC</TIME_SYSTEM><MEAN_ELEMENT_THEORY>SGP4</MEAN_ELEMENT_THEORY></metadata><data><meanElements><EPOCH>2025-11-04T15:43:46.977312</EPOCH><MEAN_MOTION>1.00271287</MEAN_MOTION><ECCENTRICITY>.0003365</ECCENTRICITY><INCLINATION>0.0327</INCLINATION><RA_OF_ASC_NODE>31.3781</RA_OF_ASC_NODE><ARG_OF_PERICENTER>206.4456</ARG_OF_PERICENTER><MEAN_ANOMALY>285.4983</MEAN_ANOMALY></meanElements><tleParameters><EPHEMERIS_TYPE>0</EPHEMERIS_TYPE><CLASSIFICATION_TYPE>U</CLASSIFICATION_TYPE><NORAD_CAT_ID>39122</NORAD_CAT_ID><ELEMENT_SET_NO>999</ELEMENT_SET_NO><REV_AT_EPOCH>4618</REV_AT_EPOCH><BSTAR>0</BSTAR><MEAN_MOTION_DOT>-.1E-7</MEAN_MOTION_DOT><MEAN_MOTION_DDOT>0</MEAN_MOTION_DDOT></tleParameters></data></segment></body></omm>
<omm id="CCSDS_OMM_VERS" version="2.0">
<header><CREATION_DATE/><ORIGINATOR/></header><body><segment><metadata><OBJECT_NAME>EUTELSAT 7B</OBJECT_NAME><OBJECT_ID>2013-022A</OBJECT_ID><CENTER_NAME>EARTH</CENTER_NAME><REF_FRAME>TEME</REF_FRAME><TIME_SYSTEM>UTC</TIME_SYSTEM><MEAN_ELEMENT_THEORY>SGP4</MEAN_ELEMENT_THEORY></metadata><data><meanElements><EPOCH>2025-11-04T14:36:23.434848</EPOCH><MEAN_MOTION>1.00272345</MEAN_MOTION><ECCENTRICITY>.0003</ECCENTRICITY><INCLINATION>0.0725</INCLINATION><RA_OF_ASC_NODE>7.6364</RA_OF_ASC_NODE><ARG_OF_PERICENTER>298.1587</ARG_OF_PERICENTER><MEAN_ANOMALY>324.4363</MEAN_ANOMALY></meanElements><tleParameters><EPHEMERIS_TYPE>0</EPHEMERIS_TYPE><CLASSIFICATION_TYPE>U</CLASSIFICATION_TYPE><NORAD_CAT_ID>39163</NORAD_CAT_ID><ELEMENT_SET_NO>999</ELEMENT_SET_NO><REV_AT_EPOCH>4570</REV_AT_EPOCH><BSTAR>0</BSTAR><MEAN_MOTION_DOT>.61E-6</MEAN_MOTION_DOT><MEAN_MOTION_DDOT>0</MEAN_MOTION_DDOT></tleParameters></data></segment></body></omm>
<omm id="CCSDS_OMM_VERS" version="2.0">
<header><CREATION_DATE/><ORIGINATOR/></header><body><segment><metadata><OBJECT_NAME>EXPRESS-AT1</OBJECT_NAME><OBJECT_ID>2014-010A</OBJECT_ID><CENTER_NAME>EARTH</CENTER_NAME><REF_FRAME>TEME</REF_FRAME><TIME_SYSTEM>UTC</TIME_SYSTEM><MEAN_ELEMENT_THEORY>SGP4</MEAN_ELEMENT_THEORY></metadata><data><meanElements><EPOCH>2025-11-04T14:50:22.096320</EPOCH><MEAN_MOTION>1.00268566</MEAN_MOTION><ECCENTRICITY>.0000443</ECCENTRICITY><INCLINATION>0.0124</INCLINATION><RA_OF_ASC_NODE>256.6514</RA_OF_ASC_NODE><ARG_OF_PERICENTER>237.0661</ARG_OF_PERICENTER><MEAN_ANOMALY>189.0193</MEAN_ANOMALY></meanElements><tleParameters><EPHEMERIS_TYPE>0</EPHEMERIS_TYPE><CLASSIFICATION_TYPE>U</CLASSIFICATION_TYPE><NORAD_CAT_ID>39612</NORAD_CAT_ID><ELEMENT_SET_NO>999</ELEMENT_SET_NO><REV_AT_EPOCH>4256</REV_AT_EPOCH><BSTAR>0</BSTAR><MEAN_MOTION_DOT>.91E-6</MEAN_MOTION_DOT><MEAN_MOTION_DDOT>0</MEAN_MOTION_DDOT></tleParameters></data></segment></body></omm>
<omm id="CCSDS_OMM_VERS" version="2.0">
<header><CREATION_DATE/><ORIGINATOR/></header><body><segment><metadata><OBJECT_NAME>EXPRESS-AT2</OBJECT_NAME><OBJECT_ID>2014-010B</OBJECT_ID><CENTER_NAME>EARTH</CENTER_NAME><REF_FRAME>TEME</REF_FRAME><TIME_SYSTEM>UTC</TIME_SYSTEM><MEAN_ELEMENT_THEORY>SGP4</MEAN_ELEMENT_THEORY></metadata><data><meanElements><EPOCH>2025-11-04T20:36:44.629632</EPOCH><MEAN_MOTION>1.00272072</MEAN_MOTION><ECCENTRICITY>.0001832</ECCENTRICITY><INCLINATION>0.0141</INCLINATION><RA_OF_ASC_NODE>267.1688</RA_OF_ASC_NODE><ARG_OF_PERICENTER>18.0293</ARG_OF_PERICENTER><MEAN_ANOMALY>208.2189</MEAN_ANOMALY></meanElements><tleParameters><EPHEMERIS_TYPE>0</EPHEMERIS_TYPE><CLASSIFICATION_TYPE>U</CLASSIFICATION_TYPE><NORAD_CAT_ID>39613</NORAD_CAT_ID><ELEMENT_SET_NO>999</ELEMENT_SET_NO><REV_AT_EPOCH>4225</REV_AT_EPOCH><BSTAR>0</BSTAR><MEAN_MOTION_DOT>-.269E-5</MEAN_MOTION_DOT><MEAN_MOTION_DDOT>0</MEAN_MOTION_DDOT></tleParameters></data></segment></body></omm>
<omm id="CCSDS_OMM_VERS" version="2.0">
<header><CREATION_DATE/><ORIGINATOR/></header><body><segment><metadata><OBJECT_NAME>EUTELSAT 3B</OBJECT_NAME><OBJECT_ID>2014-030A</OBJECT_ID><CENTER_NAME>EARTH</CENTER_NAME><REF_FRAME>TEME</REF_FRAME><TIME_SYSTEM>UTC</TIME_SYSTEM><MEAN_ELEMENT_THEORY>SGP4</MEAN_ELEMENT_THEORY></metadata><data><meanElements><EPOCH>2025-11-04T14:35:16.042848</EPOCH><MEAN_MOTION>1.00271241</MEAN_MOTION><ECCENTRICITY>.0004656</ECCENTRICITY><INCLINATION>0.0774</INCLINATION><RA_OF_ASC_NODE>32.7866</RA_OF_ASC_NODE><ARG_OF_PERICENTER>184.1927</ARG_OF_PERICENTER><MEAN_ANOMALY>49.0342</MEAN_ANOMALY></meanElements><tleParameters><EPHEMERIS_TYPE>0</EPHEMERIS_TYPE><CLASSIFICATION_TYPE>U</CLASSIFICATION_TYPE><NORAD_CAT_ID>39773</NORAD_CAT_ID><ELEMENT_SET_NO>999</ELEMENT_SET_NO><REV_AT_EPOCH>4181</REV_AT_EPOCH><BSTAR>0</BSTAR><MEAN_MOTION_DOT>.32E-6</MEAN_MOTION_DOT><MEAN_MOTION_DDOT>0</MEAN_MOTION_DDOT></tleParameters></data></segment></body></omm>
<omm id="CCSDS_OMM_VERS" version="2.0">
<header><CREATION_DATE/><ORIGINATOR/></header><body><segment><metadata><OBJECT_NAME>EUTELSAT 115 WEST B</OBJECT_NAME><OBJECT_ID>2015-010B</OBJECT_ID><CENTER_NAME>EARTH</CENTER_NAME><REF_FRAME>TEME</REF_FRAME><TIME_SYSTEM>UTC</TIME_SYSTEM><MEAN_ELEMENT_THEORY>SGP4</MEAN_ELEMENT_THEORY></metadata><data><meanElements><EPOCH>2025-11-04T06:43:43.656096</EPOCH><MEAN_MOTION>1.00269913</MEAN_MOTION><ECCENTRICITY>.0000449</ECCENTRICITY><INCLINATION>0.0151</INCLINATION><RA_OF_ASC_NODE>106.1995</RA_OF_ASC_NODE><ARG_OF_PERICENTER>283.1021</ARG_OF_PERICENTER><MEAN_ANOMALY>0.5336</MEAN_ANOMALY></meanElements><tleParameters><EPHEMERIS_TYPE>0</EPHEMERIS_TYPE><CLASSIFICATION_TYPE>U</CLASSIFICATION_TYPE><NORAD_CAT_ID>40425</NORAD_CAT_ID><ELEMENT_SET_NO>999</ELEMENT_SET_NO><REV_AT_EPOCH>3913</REV_AT_EPOCH><BSTAR>0</BSTAR><MEAN_MOTION_DOT>-.12E-6</MEAN_MOTION_DOT><MEAN_MOTION_DDOT>0</MEAN_MOTION_DDOT></tleParameters></data></segment></body></omm>

</ndm>
